latitude;longitude;elevation_m_asl;name;street;street_no;zip_code;city;tel;category
50.809274;8.771387;212;Alte Mensa;Reitgasse;11;35037;Marburg;;other_essentials
50.801125;8.772572;183;Aqua Mar;Sommerbadstr.;41;35037;Marburg;;other_essentials
50.803792;8.756557;192;Aral;An der Stadtautobahn;;35037;Marburg;;other_essentials
50.799826;8.789181;270;Aral;Grossseelheimer Str.;93;35039;Marburg;;other_essentials
50.817687;8.77492;185;Aral;Krummbogen;4;35039;Marburg;;other_essentials
50.799249;8.762294;184;Aral;Schwanallee;56;35037;Marburg;;other_essentials
50.840738;8.769494;186;Avia Tankstelle;Am Kaufmarkt;1;35041;Marburg;;other_essentials
50.80622;8.7688;185;C & T - The Coffee & Tea Company & Kaffeerösterei;Gutenbergstr.;11a;35037;Marburg;;other_essentials
50.808751;8.773558;187;Capitol Filmtheater;Biegenstr.;8;35037;Marburg;;other_essentials
50.81471;8.77124;190;Carolinenhaus (venue pre-conference workshops);Deutschhausstr.;12;35037;Marburg;;other_essentials
50.80897;8.77337;187;Cineplex Marburg;Biegenstr.;1a;35037;Marburg;;other_essentials
50.80991;8.77191;203;Copy & Shirt;Pilgrimstein;24a;35037;Marburg;;other_essentials
50.808246;8.772445;194;Copy Courier;Rudolphsplatz;;35037;Marburg;;other_essentials
50.810264;8.771683;203;Copyprint;Pilgrimstein;22;35037;Marburg;;other_essentials
50.80791;8.77081;191;Damfastore;Untergasse;20;35037;Marburg;;other_essentials
50.806854;8.777324;185;Dm-drogeriemarkt;Erlenring;9;35037;Marburg;;other_essentials
50.786993;8.767143;187;Dm-drogeriemarkt;Marburger Str.;100;35043;Marburg;;other_essentials
50.82466;8.76887;186;Dm-drogeriemarkt;Neue Kasseler Str.;26;35039;Marburg;;other_essentials
50.82097;8.77253;185;Elektro Zigge;Neue Kasseler Str.;7a;35039;Marburg;;other_essentials
50.811;8.77145;204;elevator;Pilgrimstein ;17;35037;Marburg;;other_essentials
50.81092;8.77139;204;elevator;Pilgrimstein ;17;35037;Marburg;;other_essentials
50.81084;8.77079;232;elevator;Wettergasse;41;35037;Marburg;;other_essentials
50.8062;8.77881;185;Esso;Bei St. Jost;2;35037;Marburg;;other_essentials
50.81624;8.75133;233;Esso;Emil-von-Behring-Str.;45;35041;Marburg;;other_essentials
50.82816;8.76874;183;Fischer Tankstelle;Affoellerstr.;57;35039;Marburg;;other_essentials
50.809487;8.772284;200;Fresh & take;Pilgrimstein;28;35037;Marburg;;other_essentials
50.834598;8.752611;219;Hallenbad Wehrda;Zur Wann;;35041;Marburg;;other_essentials
50.794965;8.757614;180;Jet;Gisselberger Str.;51;35037;Marburg;;other_essentials
50.830807;8.772462;195;Jet;Neue Kasseler Str.;64;35039;Marburg;;other_essentials
50.810387;8.774552;186;KFZ;Biegenstr.;15;35037;Marburg;;other_essentials
50.81954;8.77761;201;Kiosk am Ortenberg;Schuetzenstr.;30a;35037;Marburg;;other_essentials
50.806209;8.764856;186;Kopier Service;Haspelstr.;3;35037;Marburg;;other_essentials
50.808751;8.773558;187;Kopierladen Marburg;Biegenstr.;8;35037;Marburg;;other_essentials
50.79233;8.76424;185;Lavari;Frauenbergstr.;16;35039;Marburg;;other_essentials
50.812252;8.769812;211;Marburger Filmkunsttheater GmbH;Steinweg;4;35037;Marburg;;other_essentials
50.818005;8.775585;187;Nachtsalon;Bahnhofstr.;31a;35037;Marburg;;other_essentials
50.806119;8.769131;185;New life shop;Gutenbergstr.;6;35037;Marburg;;other_essentials
50.80935;8.77205;200;Oberstadtaufzug;Pilgrimstein ;28;35037;Marburg;;other_essentials
50.819633;8.774134;187;P & B Presse & Buch;Bahnhofstr.;33;35037;Marburg;;other_essentials
50.815351;8.769159;196;Rossmann;Elisabethstr.;9;35037;Marburg;;other_essentials
50.806978;8.768698;190;Rossmann;Universitaetsstr.;18;35037;Marburg;;other_essentials
50.805109;8.76957;185;SB-Waschcenter;Gutenbergstr.;16;35039;Marburg;;other_essentials
50.817497;8.771705;187;Schreibwaren Baehr;Bahnhofstr.;17;35037;Marburg;;other_essentials
50.802154;8.766768;183;Schreibwaren Lotto-Toto;Frankfurter Str.;14a;35037;Marburg;;other_essentials
50.794803;8.756721;180;Shell;Gisselberger Str.;53;35037;Marburg;;other_essentials
50.81276;8.76951;216;Szenario;Steinweg;12;35037;Marburg;;other_essentials
50.806432;8.768675;190;Tabakwaren Knau;Gutenbergstr.;7;35037;Marburg;;other_essentials
50.813972;8.76943;193;Tabakwaren Lesch;Steinweg;37;35037;Marburg;;other_essentials
50.809789;8.77076;218;Tee Gschwendner;Wettergasse;11;35037;Marburg;;other_essentials
50.812007;8.770267;228;Teehaus Marburg;Steinweg;1;35037;Marburg;;other_essentials
50.7894;8.76495;182;Till Dawn;Temmlerstr.;7;35039;Marburg;;other_essentials
50.819633;8.774134;187;Tobacco & more;Bahnhofstr.;33;35037;Marburg;;other_essentials
50.817773;8.77167;187;Toto-Lotto Annahme;Bahnhofstr.;24;35037;Marburg;;other_essentials
50.810387;8.774552;186;Tourist Information;Biegenstr.;15;35037;Marburg;;other_essentials
50.81698;8.77862;186;Waggonhalle;Rudolf-Bultmann-Str.;2a;35039;Marburg;;other_essentials
50.8109;8.77374;186;Zentrales Hörsaalgebäude (venue);Biegenstr.;14;35037;Marburg;;other_essentials
50.79458;8.76303;184;Apotheke am Suedbahnhof;Frauenbergstr.;2;35039;Marburg;;pharmacy
50.801278;8.75054;199;Apotheke an der Hohen Leuchte;Ockershaeuser Str.;78;35037;Marburg;;pharmacy
50.80915;8.77281;200;Apotheke im Lahncenter;Biegenstr.;4;35037;Marburg;;pharmacy
50.77981;8.77;204;Apotheke Zum Frauenberg oHG;Marburger Str.;26;35043;Marburg-Cappel;;pharmacy
50.81864;8.77424;185;Bahnhof-Apotheke;Bahnhofstr.;29;35037;Marburg;;pharmacy
50.792918;8.785488;285;Behring-Apotheke;Am Richtsberg;68;35039;Marburg;;pharmacy
50.816304;8.751998;240;Brunnen-Apotheke;Emil-von-Behring-Str.;46;35041;Marburg-Marbach;;pharmacy
50.813256;8.775634;185;Deutschhaus-Apotheke;Biegenstr.;44;35037;Marburg;;pharmacy
50.81407;8.76927;193;Einhorn-Apotheke;Steinweg;39;35037;Marburg;;pharmacy
50.806854;8.777324;185;Erlenring-Apotheke;Erlenring;9;35037;Marburg;;pharmacy
50.817096;8.770966;186;Hirsch-Apotheke;Bahnhofstr.;9;35037;Marburg;;pharmacy
50.80589;8.76751;187;Lahn-Apotheke;Wilhelmstr.;5-7+11;35037;Marburg;;pharmacy
50.840738;8.769494;186;Neue Apotheke;Am Kaufmarkt;1;35041;Marburg-Wehrda;;pharmacy
50.80664;8.76345;191;Neue Universitätsapotheke zum Schwan;Universitaetsstr.;41;35037;Marburg;;pharmacy
50.809115;8.771386;212;Philipps-Apotheke;Reitgasse;10;35037;Marburg;;pharmacy
50.804417;8.758669;189;Rosen-Apotheke;Schwanallee;1;35037;Marburg;;pharmacy
50.807392;8.769113;197;Schlossberg-Apotheke;Universitaetsstr.;15;35037;Marburg;;pharmacy
50.80057;8.76;185;Sonnen-Apotheke;Frankfurter Str.;38;35037;Marburg;;pharmacy
50.83584;8.75495;210;St. Elisabeth-Apotheke;Huteweg;4b;35041;Marburg-Wehrda;;pharmacy
50.81289;8.690359;225;Weidenborn-Apotheke;Weidenbornstr.;6;35041;Marburg;;pharmacy
50.79486;8.76296;185;Ayse's Taxi;Frauenbergstr.;1;35039;Marburg;06421-44477;taxi
50.825994;8.772052;186;Cengiz;Neue Kasseler Str.;29;35039;Marburg;06421-690 07 00;taxi
50.8282;8.77122;185;CityTaxi;Neue Kasseler Str.;54;35039;Marburg;06421-444 11;taxi
50.82197;8.77123;183;Minicar 24 Marburg;Zimmermannstr.;2;35039;Marburg;06421-144 44;taxi
50.804504;8.778238;183;My Car Taxi;Bei St. Jost;11a;35039;Marburg;06421-999 88 85;taxi
50.83747;8.77235;197;Sparcar GbR;Siemensstr.;2;35041;Marburg;06421-999 988;taxi
50.773228;8.780013;243;Taxi Kazim;Moischter Str.;59;35043;Marburg;06421-9488877;taxi
50.82521;8.77;185;Taxi Mitte;Neue Kasseler Str.;27;35039;Marburg;06421-22222;taxi
50.825994;8.772052;186;Taxi Sorany;Neue Kasseler Str.;29;35039;Marburg;06421-999999;taxi
50.82197;8.77123;183;Taxi UniCar UG;Zimmermannstr.;2;35039;Marburg;06421-47777;taxi
50.78916;8.78;260;Taxi-Express Saleh;Berliner Str.;9;35039;Marburg;06421-444 44;taxi
50.83353;8.76104;199;Taxi-Ruf Brunett;Wehrdaer Str.;119;35041;Marburg;06421-880099;taxi
50.818005;8.775585;187;TeleCar-Stadtmobil 24 Marburg LTD;Bahnhofstr.;31;35037;Marburg;06421-25 100;taxi
50.78307;8.77;200;VIPcar;Goethestr.;20;35041;Marburg;06421-666 99;taxi
50.82;8.77;187;Yellow Car;Affoellerstr.;30;35039;Marburg;06421-304 050;taxi
50.839215;8.755832;229;Begegnungszentrum Sonneck;Hebronweg;7;35041;Marburg-Wehrda;;accomodation
50.804287;8.772945;183;Campingplatz Lahnaue;Trojedamm;47;35037;Marburg;;accomodation
50.77533;8.76661;192;Carle;Ronhaeuser Str.;8;35043;Marburg;;accomodation
50.81886;8.77487;186;Hostel Marburg-One;Bahnhofstr.;33A;35037;Marburg;;accomodation
50.79188;8.76379;183;Hotel im Kornspeicher;Molkereistr.;6;35039;Marburg;;accomodation
50.815571;8.768644;200;Hotel Marburger Hof;Elisabethstr.;12;35037;Marburg;;accomodation
50.803895;8.773646;183;Jugendherberge;Jahnstr.;1;35037;Marburg;;accomodation
50.83473;8.76082;191;Lahngarten;Wehdaer Str.;102;35041;Marburg;;accomodation
50.80865;8.77222;194;Pension Harmony;Muehltreppe;1;35037;Marburg;;accomodation
50.813569;8.774576;184;Pension Haus Müller;Deutschhausstr.;29;35037;Marburg;;accomodation
50.80047;8.74071;246;Schneider;Gladenbacher Weg;39;35037;Marburg;;accomodation
50.80472;8.76915;185;Tusculum;Gutenbergstr.;25;35037;Marburg;;accomodation
50.81873;8.76826;187;Vila Vita Rosenpark;Annelise Pohl Allee;Jul 17;35037;Marburg;;accomodation
50.81704;8.770322;185;Village Stadthotel;Bahnhofstr.;14;35037;Marburg;;accomodation
50.80943;8.772573;200;Welcome Hotel Marburg;Pilgrimstein;29;35037;Marburg;;accomodation
50.80914;8.68925;230;Zum Alten Schneider;Elnhaeuser Str.;13;35041;Marburg;;accomodation
50.81001;8.77183;203;Asia Center;Pilgrimstein;23  1/2;35037;Marburg;;food
50.81547;8.769;193;Asia Shop;Elisabethstr.;11;35037;Marburg;;food
50.83001;8.77038;185;Aldi;Affoellerstr.;90;35039;Marburg;;supermarket
50.78678;8.76885;189;Aldi;Beltershaeuser Str.;5;35039;Marburg;;supermarket
50.806854;8.777324;185;Aldi;Erlenring;9;35037;Marburg;;supermarket
50.842508;8.765671;185;Aldi;Industriestr.;9;35041;Marburg;;supermarket
50.82426;8.77383;190;Edeka Kempf;Alte Kasseler Str.;27b;35039;Marburg;;supermarket
50.793316;8.785707;285;Edeka Neukauf;Am Richtsberg;70;35039;Marburg;;supermarket
50.79893;8.75;195;Edeka Neukauf;Leopold-Lucas-Str.;77;35037;Marburg;;supermarket
50.81751;8.77;185;Edeka Neukauf;Rosenstr.;2;35037;Marburg;;supermarket
50.80066;8.75094;197;Edeka Pinschmidt / Getraenkemarkt;Bachweg;2;35037;Marburg;;supermarket
50.788476;8.765461;185;Harman Yeri Supermarkt;Temmlerstr.;13;35039;Marburg;;supermarket
50.788137;8.765864;185;Herkules;Temmlerstr.;19;35039;Marburg;;supermarket
50.841956;8.765621;185;Lidl-Markt;Industriestr.;7;35041;Marburg;;supermarket
50.785914;8.766674;185;Lidl-Markt;Marburger Str.;90;35043;Marburg;;supermarket
50.807392;8.769113;197;Lidl-Markt;Universitaetsstr.;15;35037;Marburg;;supermarket
50.82488;8.77077;185;Penny Markt;Neue Kasseler Str.;24;35039;Marburg;;supermarket
50.804829;8.758226;192;REWE;Ockershaeuser Allee;05. Jul;35037;Marburg;;supermarket
50.806504;8.767192;192;REWE im Ahrens;Universitaetsstr.;14-22;35037;Marburg;;supermarket
50.806854;8.777324;185;REWE Kranich OHG;Erlenring;9;35037;Marburg;;supermarket
50.792205;8.785228;286;REWE Markt Kaiser;Am Richtsberg;64;35039;Marburg;;supermarket
50.840738;8.769494;186;tegut;Am Kaufmarkt;1;35041;Marburg;;supermarket
50.814306;8.766864;198;tegut;Ketzerbach;25-28;35037;Marburg;;supermarket
50.786993;8.767143;187;tegut;Marburger Str.;100;35043;Marburg;;supermarket
50.80655;8.769347;190;tegut;Universitaetsstr.;8;35037;Marburg;;supermarket
50.818944;8.773485;186;Back Company;Bahnhofstr.;36;35037;Marburg;;bakery
50.82978;8.76951;185;Bäcker Mueller GmbH & Co. KG;Affoellerstr.;90;35039;Marburg;;bakery
50.793316;8.785707;285;Bäcker Mueller GmbH & Co. KG;Am Richtsberg;70;35039;Marburg;;bakery
50.816647;8.769524;186;Bäcker Mueller GmbH & Co. KG;Bahnhofstr.;8;35037;Marburg;;bakery
50.805109;8.76957;185;Bäcker Mueller GmbH & Co. KG;Gutenbergstr.;16;35037;Marburg;;bakery
50.841803;8.766516;186;Bäcker Mueller GmbH & Co. KG;Industriestr.;5;35041;Marburg;;bakery
50.804982;8.770246;184;Bäcker Mueller GmbH & Co. KG;Jaegerstr.;;35037;Marburg;;bakery
50.814177;8.767451;196;Bäcker Mueller GmbH & Co. KG;Ketzerbach;21;35037;Marburg;;bakery
50.77712;8.768044;195;Bäcker Mueller GmbH & Co. KG;Marburger Str.;4;35043;Marburg-Cappel;;bakery
50.81407;8.76927;193;Bäcker Mueller GmbH & Co. KG;Steinweg;39;35037;Marburg;;bakery
50.83545;8.76051;190;Bäcker Mueller GmbH & Co. KG;Wehrdaer Str.;143;35041;Marburg;;bakery
50.809763;8.77;233;Bäcker Mueller GmbH & Co. KG;Wettergasse;7;35037;Marburg;;bakery
50.81946;8.77847;205;Bäcker Müller GmbH & Co. KG;Dürerstr.;1;35039;Marburg;;bakery
50.8056;8.77604;185;Bäckerei Carle;Weidenhaeuser Str.;79;35037;Marburg;;bakery
50.825905;8.771367;186;Bäckerei Knapp;Schlosserstr.;1;35037;Marburg;;bakery
50.808769;8.774098;186;Bäckerei Kuenkel;Gerhard-Jahn-Platz;13;35037;Marburg;;bakery
50.807392;8.769113;197;Bäckerei Kuenkel;Universitaetsstr.;15;35037;Marburg;;bakery
50.78368;8.76786;189;Bäckerei Steitz;Marburger Str.;72;35043;Marburg;;bakery
50.82426;8.77383;190;Backhaus Horst;Alte Kasseler Str.;27b;35039;Marburg;;bakery
50.806711;8.768565;190;Backhaus Horst;Gutenbergstr.;3;35037;Marburg;;bakery
50.79895;8.75;195;Backhaus Horst;Leopold-Lucas-Str.;77;35037;Marburg;;bakery
50.81728;8.77;185;Backhaus Horst;Rosenstr.;2;35037;Marburg;;bakery
50.816106;8.749719;244;Backshop Rudolf Kraft;Brunnenstr.;7;35041;Marburg;;bakery
50.81437;8.76928;193;Backshop Rudolf Kraft;Steinweg;45;35037;Marburg;;bakery
50.800036;8.790474;270;Dickel;Gustav-Freytag-Str.;2;35039;Marburg;;bakery
50.808301;8.769159;215;Mühlenbaeckerei Pfeiffer;Barfuesserstr.;43;35037;Marburg;;bakery
50.81303;8.775921;185;Mühlenbaeckerei Pfeiffer;Biegenstr.;47;35037;Marburg;;bakery
50.815935;8.752146;237;Mühlenbaeckerei Pfeiffer;Emil-von-Behring-Str.;37;35041;Marburg;;bakery
50.840738;8.769494;186;Schäfers Backstuben GmbH;Am Kaufmarkt;1;35041;Marburg;;bakery
50.792205;8.785228;286;Schäfers Backstuben GmbH;Am Richtsberg;64;35039;Marburg;;bakery
50.80915;8.77281;200;Schäfers Backstuben GmbH;Biegenstr.;4;35037;Marburg;;bakery
50.806854;8.777324;185;Schäfers Backstuben GmbH;Erlenring;9;35037;Marburg;;bakery
50.77912;8.76732;189;Schäfers Backstuben GmbH;Marburger Str.;20;35043;Marburg;;bakery
50.786993;8.767143;187;Schäfers Backstuben GmbH;Marburger Str.;100;35043;Marburg;;bakery
50.804829;8.758226;192;Schäfers Backstuben GmbH;Ockershaeuser Allee;5;35037;Marburg;;bakery
50.80118;8.75973;185;Schäfers Backstuben GmbH;Schwanallee;31a;35037;Marburg;;bakery
50.80655;8.769347;190;Schäfers Backstuben GmbH;Universitaetsstr.;8;35037;Marburg;;bakery
50.80116;8.77793;206;Schäfers Backstuben GmbH;Weintrautstr.;41;35039;Marburg;;bakery
50.817111;8.770416;185;Schwälmer Brotladen;Bahnhofstr.;16;35037;Marburg;;bakery
50.795145;8.76898;200;Schwälmer Brotladen;Cappeler Str.;54;35039;Marburg;;bakery
50.817571;8.771727;187;Schwälmer Brotladen;Im Hauptbahnhof;;35037;Marburg;;bakery
50.83977;8.767676;184;Schwälmer Brotladen;Im Schwarzenborn;2;35041;Marburg;;bakery
50.788137;8.765864;185;Schwälmer Brotladen;Temmlerstr.;19;35039;Marburg;;bakery
50.80676;8.76755;192;Schwälmer Brotladen;Universitaetsstr.;14;35037;Marburg;;bakery
50.806504;8.767192;192;Schwälmer Brotladen;Universitaetsstr.;14-22;35037;Marburg;;bakery
50.80358;8.755361;191;Allee Café;Ockershaeuser Allee;17;35037;Marburg;;cafe
50.819192;8.773793;186;Basic Coffee;Bahnhofstr.;38;35037;Marburg;;cafe
50.80705;8.77335;184;Bootsverleih + Ufercaf‚ Gischler;Auf dem Wehr;1a;35037;Marburg;;cafe
50.806723;8.77189;185;Café am Gruen;Am Gruen;28;35037;Marburg;;cafe
50.809109;8.770831;220;Café am Markt;Markt;9;35037;Marburg;;cafe
50.80174;8.75893;184;Café Aroma;Schwanallee;29a;35037;Marburg;;cafe
50.805738;8.76798;186;Café Campiello;Wilhelmstr.;6;35037;Marburg;;cafe
50.80851;8.76941;215;Café Cappuccino;Barfuesserstr.;46;35037;Marburg;;cafe
50.806137;8.768747;186;Café Gutenberg;Gutenbergstr.;11;35037;Marburg;;cafe
50.80893;8.772329;200;Café Mocca;Pilgrimstein;31;35037;Marburg;;cafe
50.82466;8.77153;184;Café Neumarkt;Neue Kasseler Str.;24a;35039;Marburg;;cafe
50.78309;8.77176;205;Café Piccolo;Im Lichtholz;33;35039;Marburg;;cafe
50.81888;8.77015;183;Café Rosenpark;Annelise Pohl Allee;Jul 17;35037;Marburg;;cafe
50.79833;8.80282;322;Café Sonnenblick;Amoeneburger Str.;01. Jun;35043;Marburg;;cafe
50.808726;8.771881;204;Café Vetter;Reitgasse;4;35037;Marburg;;cafe
50.810426;8.770939;217;Contigo Kaffeeroesterei;Wettergasse;29;35037;Marburg;;cafe
50.7763;8.76848;199;Eiscafé Cais;Am Kirchberg;1;35043;Marburg-Cappel;;cafe
50.840738;8.769494;186;Eiscafé Camerin;Am Kaufmarkt;1;35041;Marburg;;cafe
50.81954;8.77761;201;Eiscafé Capri;Schuetzenstr.;30a;35039;Marburg;;cafe
50.80915;8.77281;200;Eiscafé Catagro;Biegenstr.;4;35037;Marburg;;cafe
50.807392;8.769113;197;Eiscafé I Trulli;Universitaetsstr.;15;35037;Marburg;;cafe
50.811063;8.770378;234;Eiscafé Venezia;Neustadt;5;35037;Marburg;;cafe
50.77652;8.76841;199;Eisdiele Adria;Cappeler Markt;1;35043;Marburg;;cafe
50.81302;8.76938;200;Kaffeerösterei Bohne;Steinweg;19;35037;Marburg;;cafe
50.815442;8.79725;389;Kaiser-Wilhelm-Turm / Spiegelslustturm;Hermann-Bauer-Weg;2;35043;Marburg;;cafe
50.81421;8.76783;196;Ketzercafé;Ketzerbach;13a;35037;Marburg;;cafe
50.810676;8.77066;217;Konditorei Klingelhoefer;Wettergasse;38;35037;Marburg;;cafe
50.80671;8.77477;186;Kunstcafé Gloria;Weidenhaeuser Str.;35;35037;Marburg;;cafe
50.80811;8.76737;218;La Manufacture d'Anouk;Barfuesserstr.;9a;35037;Marburg;;cafe
50.809157;8.762582;277;Schlosspark Café;Gisonenweg;;35037;Marburg;;cafe
50.817111;8.770416;185;Schwälmer Café;Bahnhofstr.;16;35037;Marburg;;cafe
50.804287;8.772945;183;Terrassencafé Lahnaue;Trojedamm;47;35037;Marburg;;cafe
50.80756;8.77519;184;Weidenhaeuser Kaffeeroesterei;Erlenring;4;35037;Marburg;;cafe
50.80893;8.772329;200;Bereket Döner;Pilgrimstein;31;35037;Marburg;;imbiss
50.82957;8.76842;184;Burger King;Affoellerstr.;63;35039;Marburg;;imbiss
50.810264;8.771683;203;Burgerlokal;Pilgrimstein;22;35037;Marburg;;imbiss
50.80943;8.772573;200;Ceder;Pilgrimstein;29;35037;Marburg;;imbiss
50.809767;8.772275;195;Chilli King;Pilgrimstein;25;35037;Marburg;;imbiss
50.806119;8.769131;185;Corner Döner- und Pizzahaus;Gutenbergstr.;6;35037;Marburg;;imbiss
50.819633;8.774134;187;Ditsch;Bahnhofstr.;33;35037;Marburg;;imbiss
50.80964;8.772018;203;Fantasticum;Pilgrimstein;26;35037;Marburg;;imbiss
50.802563;8.75939;183;Genc Snackbar;Schwanallee;26;35037;Marburg;;imbiss
50.81695;8.77016;185;Halal Döner;Bahnhofstr.;12b;35037;Marburg;;imbiss
50.7965;8.76052;181;Hallo Pizza;Gisselberger Str.;27;35037;Marburg;;imbiss
50.81476;8.76898;196;Istanbul Döner;Elisabethstr.;1;35037;Marburg;;imbiss
50.80975;8.77383;186;Lecker-Eck Imbiss;Biegenstr.;8a;35037;Marburg;;imbiss
50.809767;8.772275;195;Mac Food;Pilgrimstein;25;35037;Marburg;;imbiss
50.83233;8.76839;185;McDonald's;Affoellerstr.;102;35039;Marburg;;imbiss
50.808499;8.768825;215;Mevlana;Barfuesserstr.;37;35037;Marburg;;imbiss
50.80864;8.77242;194;Mr. King;Pilgrimstein;33;35037;Marburg;;imbiss
50.81498;8.76891;196;Multi Kulti;Elisabethstr.;5;35037;Marburg;;imbiss
50.807392;8.769113;197;Nordsee GmbH;Universitaetsstr.;15;35037;Marburg;;imbiss
50.80765;8.77464;184;Palmyra Bistro;Erlenring;2;35037;Marburg;;imbiss
50.82831;8.76887;184;Peter's Imbiss;Affoellerstr.;57;35039;Marburg;;imbiss
50.815251;8.768828;196;Pizza Como Lario;Elisabethstr.;10;35037;Marburg;;imbiss
50.8174;8.77109;186;Pizza da Pepe;Bahnhofstr.;18a;35037;Marburg;;imbiss
50.80702;8.77179;185;Pizza Manhattan;Am Gruen;1a;35037;Marburg;;imbiss
50.79;8.76;178;Pizza Pikante;Frauenbergstr.;1a;35039;Marburg;;imbiss
50.80557;8.75956;200;Pizza Tony;Barfuessertor;21;35037;Marburg;;imbiss
50.8013;8.75962;186;Pizzeria Paisano;Schwanallee;31a;35037;Marburg;;imbiss
50.81774;8.77137;187;Rhodos Grill;Bahnhofstr.;22;35037;Marburg;;imbiss
50.80943;8.772573;200;Salaedchen Marburg 1;Pilgrimstein;29;35037;Marburg;;imbiss
50.8023;8.75957;183;Salaedchen Marburg 2;Schwanallee;30;35037;Marburg;;imbiss
50.804266;8.759256;188;Schmankerl Stub n;Schwanallee;8;35037;Marburg;;imbiss
50.794164;8.81454;317;Schwaelmer Brotladen;Lahnberge Kiosk Uniklinikum;;35043;Marburg;;imbiss
50.807238;8.771601;188;Sefa Döner;Am Gruen;1;35037;Marburg;;imbiss
50.80915;8.77281;200;Sofra Döner;Biegenstr.;4;35037;Marburg;;imbiss
50.818944;8.773485;186;Star Döner und Pizzahaus;Bahnhofstr.;36;35037;Marburg;;imbiss
50.83193;8.76907;184;Subway;Affoellerstr.;98;35039;Marburg;;imbiss
50.80773;8.771401;188;Subway;Lahntor;5;35037;Marburg;;imbiss
50.806504;8.767192;192;Subway;Universitaetsstr.;14-22;35037;Marburg;;imbiss
50.807392;8.769113;197;Tai Gourmet;Universitaetsstr.;15;35037;Marburg;;imbiss
50.808769;8.774098;186;Tom & Sally's;Gerhard-Jahn-Platz;15;35037;Marburg;;imbiss
50.79;8.77;200;Wok Inn;Marburger Str.;86;35043;Marburg;;imbiss
50.803234;8.776111;179;Aldi's Biergarten;Am Trojedamm / Sommerbadstr.;;35037;Marburg;;bar_pub_bistro
50.80142;8.77297;181;Aqua Oase;Sommerbadstr.;41;35037;Marburg;;bar_pub_bistro
50.8204;8.76991;183;Baari Bar;Affoellerwiesen;3a;35039;Marburg;;bar_pub_bistro
50.815351;8.769159;196;Barrio Santo;Elisabethstr.;9;35037;Marburg;;bar_pub_bistro
50.80102;8.76527;184;Bebop;Frankfurter Str.;32;35037;Marburg;;bar_pub_bistro
50.808264;8.770744;209;Bierwerk;Hirschberg;12;35037;Marburg;;bar_pub_bistro
50.791841;8.739135;309;Bistro A Capella;Hannah-Arendt-Str.;2;35037;Marburg;;bar_pub_bistro
50.808479;8.771057;209;Bistro Caveau;Hirschberg;8;35037;Marburg;;bar_pub_bistro
50.81884;8.77326;186;Bistro Treffpunkt;Bahnhofstr.;32;35037;Marburg;;bar_pub_bistro
50.80517;8.77674;183;Blues 'n Darts;Weidenhaeuser Str.;97;35037;Marburg;;bar_pub_bistro
50.817999;8.766509;193;Bremsspur;Wehrdaer Weg;24;35037;Marburg;;bar_pub_bistro
50.81276;8.76951;216;Cavete;Steinweg;12;35037;Marburg;;bar_pub_bistro
50.8084;8.77357;183;Cocktailbar Villa Biedermeier;Gerhard-Jahn-Platz;3;35037;Marburg;;bar_pub_bistro
50.81311;8.77535;185;Diamond Lounge;Biegenstr.;42;35037;Marburg;;bar_pub_bistro
50.80812;8.77086;209;Enjoybar;Hirschberg;15;35037;Marburg;;bar_pub_bistro
50.80774;8.771261;188;Havanna 8;Lahntor;2;35037;Marburg;;bar_pub_bistro
50.80947;8.770116;227;Hinkelstein;Markt;18;35037;Marburg;;bar_pub_bistro
50.802563;8.75939;183;Holzwurm;Schwanallee;26;35037;Marburg;;bar_pub_bistro
50.79486;8.76296;185;kickbar;Frauenbergstr.;1a;35039;Marburg;;bar_pub_bistro
50.802;8.75887;184;Knubbel;Schwanallee;27-31;35037;Marburg;;bar_pub_bistro
50.80696;8.77437;185;Krokodil;Weidenhaeuser Str.;25;35037;Marburg;;bar_pub_bistro
50.80845;8.76922;215;La Siesta;Barfuesserstr.;44;35037;Marburg;;bar_pub_bistro
50.81864;8.77424;185;live! Genuss Bar;Bahnhofstr.;29;35037;Marburg;;bar_pub_bistro
50.81709;8.76726;193;Molly Malones;Wehrdaer Weg;16a;35037;Marburg;;bar_pub_bistro
50.808873;8.771892;212;Morgen;Reitgasse;5;35037;Marburg;;bar_pub_bistro
50.79714;8.76126;183;Musikkneipe Clou;Gisselberger Str.;23;35037;Marburg;;bar_pub_bistro
50.802154;8.766768;183;Nero;Frankfurter Str.;14a;35037;Marburg;;bar_pub_bistro
50.80963;8.76976;233;Pegasus;Schlosstreppe;2;35037;Marburg;;bar_pub_bistro
50.803279;8.754833;191;Sam's Pub;Ockershaeuser Allee;25;35037;Marburg;;bar_pub_bistro
50.81102;8.77022;234;Schlucke;Renthof;1;35037;Marburg;;bar_pub_bistro
50.807238;8.771601;188;Shotz Marburg;Am Gruen;1;35037;Marburg;;bar_pub_bistro
50.812035;8.775374;186;Sinbad Shisha Bar;Biegenstr.;31;35037;Marburg;;bar_pub_bistro
50.811741;8.770221;228;Spock Absinth Bar;Neustadt;24;35037;Marburg;;bar_pub_bistro
50.804266;8.759256;188;Sportsbar Aldi Mitte;Schwanallee;8;35037;Marburg;;bar_pub_bistro
50.80253;8.76832;182;Suedseite im TTZ;Software-Center;3;35037;Marburg;;bar_pub_bistro
50.80659;8.76227;194;Touchdown;Universitaetsstr.;47;35037;Marburg;;bar_pub_bistro
50.8204;8.76991;183;Trauma;Affoellerwiesen;3a;35039;Marburg;;bar_pub_bistro
50.812013;8.770244;228;Tunnel;Steinweg;2;35037;Marburg;;bar_pub_bistro
50.80775;8.77021;194;U14;Untergasse;14;35037;Marburg;;bar_pub_bistro
50.808873;8.771892;212;5 Jahreszeiten;Reitgasse;5;35037;Marburg;;restaurant
50.806504;8.767192;192;Ahrens Restaurant;Universitaetsstr.;14-22;35037;Marburg;;restaurant
50.7886;8.77;195;Asia Bistro;Friedrich-Ebert-Str.;23;35039;Marburg;;restaurant
50.80943;8.772573;200;Asio Snack;Pilgrimstein;29;35037;Marburg;;restaurant
50.812007;8.770267;228;Auflauf;Steinweg;1;35037;Marburg;;restaurant
50.81;8.77;233;Barny's Schnitzelscheune;Pilgrimstein;34;35037;Marburg;;restaurant
50.809569;8.76681;249;Bueckingsgarten;Landgraf-Philipp-Str.;6;35037;Marburg;;restaurant
50.80785;8.77449;183;Bulljong;Lingelgasse;10;35037;Marburg;;restaurant
50.7958;8.75556;180;Casa del Tennis;Willy-Mock-Str.;10;35037;Marburg;;restaurant
50.80055;8.77479;183;Chevy Marburg;Cappeler Str.;3;35039;Marburg;;restaurant
50.809023;8.771108;220;China-Restaurant;Reitgasse;6;35037;Marburg;;restaurant
50.843797;8.766305;185;Chinarestaurant Glueck;Industriestr.;12;35041;Marburg;;restaurant
50.81318;8.776345;186;Colosseo;Deutschhausstr.;35;35037;Marburg;;restaurant
50.81463;8.76828;202;Curry Haus;Ketzerbach;9;35037;Marburg;;restaurant
50.809392;8.770579;220;Da Nella;Markt;17;35037;Marburg;;restaurant
50.805293;8.759176;190;Das kleine Restaurant;Barfuessertor;25;35037;Marburg;;restaurant
50.812155;8.770194;211;Delirium;Steinweg;3;35037;Marburg;;restaurant
50.815571;8.768644;200;Domingo's;Elisabethstr.;12;35037;Marburg;;restaurant
50.807238;8.771601;188;Dromedar;Am Gruen;1;35037;Marburg;;restaurant
50.808142;8.768514;215;Felix;Barfuesserstr.;28;35037;Marburg;;restaurant
50.81393;8.76899;193;Gartenlaube;Steinweg;38;35037;Marburg;;restaurant
50.842808;8.757391;202;Gaststaette zum Anglerheim;Gossfeldener Str.;42;35041;Marburg;;restaurant
50.80251;8.79254;275;Hansenhaus links;Sonnenblickallee;15;35039;Marburg;;restaurant
50.80765;8.77464;184;Hikari Gold;Erlenring;2;35037;Marburg;;restaurant
50.81411;8.76907;193;I trulli;Steinweg;41;35037;Marburg;;restaurant
50.81562;8.76907;193;Indira;Elisabethstr.;13;35037;Marburg;;restaurant
50.80499;8.778842;186;Irodion;Bei St. Jost;5;35039;Marburg;;restaurant
50.829617;8.772491;194;Kaiser Palast;Neue Kasseler Str.;62;35039;Marburg;;restaurant
50.814238;8.766228;201;Kejtis Balkan Bistro;Ketzerbach;39;35037;Marburg;;restaurant
50.808115;8.767156;218;kostBar;Barfuesserstr.;7;35037;Marburg;;restaurant
50.79796;8.75854;182;La Piazzetta;Teichwiesenweg;15;35039;Marburg;;restaurant
50.80774;8.77393;183;Lahnterrasse;Lingelgasse;5;35037;Marburg;;restaurant
50.814571;8.768733;194;Lokomotive Gyros Haus Alex;Ketzerbach;5;35037;Marburg;;restaurant
50.820481;8.772826;185;Mai-Tai;Neue Kasseler Str.;4;35039;Marburg;;restaurant
50.81819;8.77157;184;Marburger Esszimmer;Annelise Pohl Allee;1;35037;Marburg;;restaurant
50.808997;8.770115;227;Market;Markt;11;35037;Marburg;;restaurant
50.80891;8.77;227;MAXX;Barfuesserstr.;55;35037;Marburg;;restaurant
50.80118;8.76477;184;O Vinho;Frankfurter Str.;31;35037;Marburg;;restaurant
50.80915;8.77281;200;Olivino;Biegenstr.;4;35037;Marburg;;restaurant
50.81205;8.77;228;Osteria Da Enzo;Steinweg;2  1/2;35037;Marburg;;restaurant
50.809239;8.771293;212;Paprika;Reitgasse;12;35037;Marburg;;restaurant
50.80236;8.76601;184;Pfeffer+Salz;Frankfurter Str.;19;35037;Marburg;;restaurant
50.81427;8.766517;198;Pizza Il Cavallino;Ketzerbach;32;35037;Marburg;;restaurant
50.80638;8.76146;197;Pizzaria Piccolino;Universitaetsstr.;49;35037;Marburg;;restaurant
50.835745;8.753215;216;Pizzeria Costa Smeralda;Im Paradies;1;35041;Marburg;;restaurant
50.808899;8.770925;220;Ratsschaenke;Markt;3;35037;Marburg;;restaurant
50.814376;8.767267;196;Restaurant Athena;Ketzerbach;22;35037;Marburg;;restaurant
50.811492;8.775063;186;Restaurant Elif;Biegenstr.;19;35037;Marburg;;restaurant
50.8188;8.76819;185;Restaurant Rosenkavalier;Annelise Pohl Allee;Jul 17;35037;Marburg;;restaurant
50.80943;8.772573;200;Restaurant Tartaruga;Pilgrimstein;29;35037;Marburg;;restaurant
50.81878;8.76838;185;Restaurant Zirbelstube;Annelise Pohl Allee;Jul 17;35037;Marburg;;restaurant
50.801354;8.790962;271;Ristorante-Pizzeria L isoletta;Sonnenblickallee;9;35039;Marburg;;restaurant
50.80575;8.77579;185;Schamdan;Weidenhaeuser Str.;72;35037;Marburg;;restaurant
50.811061;8.734262;334;Sellhof;Oberer Rotenberg;47;35041;Marburg;;restaurant
50.80803;8.77434;183;Shaky Shake;Lingelgasse;13;35037;Marburg;;restaurant
50.816202;8.776159;184;Sushi Sakura;Krummbogen;12;35039;Marburg;;restaurant
50.80864;8.77242;194;Sushi-Bar Sakura;Pilgrimstein;33;35037;Marburg;;restaurant
50.811679;8.775233;186;Tandoori;Biegenstr.;23;35037;Marburg;;restaurant
50.80943;8.772573;200;Tapas & Co;Pilgrimstein;29;35037;Marburg;;restaurant
50.814177;8.767451;196;Taverna Korfu;Ketzerbach;21;35037;Marburg;;restaurant
50.79554;8.76362;184;Taverna Thessaloniki;Zeppelinstr.;1;35039;Marburg;;restaurant
50.81576;8.76882;193;Tokyo Sushi;Elisabethstr.;14;35037;Marburg;;restaurant
50.80773;8.771361;188;Trattoria Pizzeria Basilicata;Lahntor;4;35037;Marburg;;restaurant
50.81266;8.78944;354;Waldgaststaette Spiegelslust;Spiegelslust;1;35039;Marburg;;restaurant
50.809799;8.770035;233;Weinlaedle;Schlosstreppe;1;35037;Marburg;;restaurant
50.81789;8.77195;187;Aroma Bistro & Eisbar;Annelise Pohl Allee;1;35037;Marburg;;bar_pub_bistro
50.81789;8.77195;187;Aroma Bistro & Eisbar;Annelise Pohl Allee;1;35037;Marburg;;cafe
50.81812;8.77224;184;Aroma Lahn Beach;Annelise Pohl Allee;1;35037;Marburg;;bar_pub_bistro
50.81812;8.77224;184;Aroma Lahn Beach;Annelise Pohl Allee;1;35037;Marburg;;cafe
50.812006;8.775375;186;Biegenstuebchen;Biegenstr.;29;35037;Marburg;;restaurant
50.812006;8.775375;186;Biegenstuebchen;Biegenstr.;29;35037;Marburg;;bar_pub_bistro
50.81515;8.76897;196;Bißtro;Elisabethstr.;6;35037;Marburg;;bar_pub_bistro
50.81515;8.76897;196;Bißtro;Elisabethstr.;6;35037;Marburg;;imbiss
50.809891;8.770738;218;Bistro Early;Wettergasse;14;35037;Marburg;;restaurant
50.809891;8.770738;218;Bistro Early;Wettergasse;14;35037;Marburg;;bar_pub_bistro
50.805109;8.76957;185;Bistro Waschbrett;Gutenbergstr.;16;35037;Marburg;;bar_pub_bistro
50.805109;8.76957;185;Bistro Waschbrett;Gutenbergstr.;16;35037;Marburg;;other_essentials
50.808987;8.771454;212;Brasserie;Reitgasse;8;35037;Marburg;;restaurant
50.808987;8.771454;212;Brasserie;Reitgasse;8;35037;Marburg;;bar_pub_bistro
50.808208;8.768803;215;Café Barfuss;Barfuesserstr.;33;35037;Marburg;;restaurant
50.808208;8.768803;215;Café Barfuss;Barfuesserstr.;33;35037;Marburg;;cafe
50.827697;8.77291;189;Cala Luna;Alte Kasseler Str.;66;35039;Marburg;;restaurant
50.827697;8.77291;189;Cala Luna;Alte Kasseler Str.;66;35039;Marburg;;accomodation
50.809972;8.771079;218;Die Pause;Wettergasse;16;35037;Marburg;;bar_pub_bistro
50.809972;8.771079;218;Die Pause;Wettergasse;16;35037;Marburg;;cafe
50.809253;8.770236;227;Edlunds;Markt;15;35037;Marburg;;restaurant
50.809253;8.770236;227;Edlunds;Markt;15;35037;Marburg;;cafe
50.815351;8.769159;196;Elly's;Elisabethstr.;9;35037;Marburg;;imbiss
50.815351;8.769159;196;Elly's;Elisabethstr.;9;35037;Marburg;;cafe
50.80873;8.77411;183;Enchilada;Gerhard-Jahn-Platz;21+21a;35037;Marburg;;restaurant
50.80873;8.77411;183;Enchilada;Gerhard-Jahn-Platz;21+21a;35037;Marburg;;bar_pub_bistro
50.81864;8.77424;185;Fiona's;Bahnhofstr.;29;35037;Marburg;;restaurant
50.81864;8.77424;185;Fiona's;Bahnhofstr.;29;35037;Marburg;;bar_pub_bistro
50.812486;8.775739;186;Fireflight Spaeti;Biegenstr.;37;35037;Marburg;;food
50.812486;8.775739;186;Fireflight Spaeti;Biegenstr.;37;35037;Marburg;;other_essentials
50.77297;8.75039;175;Gasthof Grebe;Giessener Str.;09. Nov;35043;Marburg;;restaurant
50.77297;8.75039;175;Gasthof Grebe;Giessener Str.;09. Nov;35043;Marburg;;accomodation
50.813413;8.776256;186;GUTKAUF;Deutschhausstr.;40;35037;Marburg;;supermarket
50.813413;8.776256;186;GUTKAUF;Deutschhausstr.;40;35037;Marburg;;food
50.78972;8.78024;267;Hama;Am Richtsberg;1;35039;Marburg;;imbiss
50.78972;8.78024;267;Hama;Am Richtsberg;1;35039;Marburg;;food
50.80438;8.77163;183;Havana;Am Gruen;58;35037;Marburg;;restaurant
50.80438;8.77163;183;Havana;Am Gruen;58;35037;Marburg;;bar_pub_bistro
50.80772;8.769773;194;Hesse Stuebchen;Untergasse;10;35037;Marburg;;restaurant
50.80772;8.769773;194;Hesse Stuebchen;Untergasse;10;35037;Marburg;;accomodation
50.802154;8.766768;183;Hommage;Frankfurter Str.;14a;35037;Marburg;;bar_pub_bistro
50.802154;8.766768;183;Hommage;Frankfurter Str.;14a;35037;Marburg;;cafe
50.809509;8.770468;220;Hostaria del Castello;Markt;19;35037;Marburg;;restaurant
50.809509;8.770468;220;Hostaria del Castello;Markt;19;35037;Marburg;;accomodation
50.77004;8.74333;226;Hotel Fasanerie;Zur Fasanerie;15;35043;Marburg;;restaurant
50.77004;8.74333;226;Hotel Fasanerie;Zur Fasanerie;15;35043;Marburg;;accomodation
50.80465;8.76559;185;Konditorei Klingelhoefer;Haspelstr.;21;35037;Marburg;;cafe
50.80465;8.76559;185;Konditorei Klingelhoefer;Haspelstr.;21;35037;Marburg;;bar_pub_bistro
50.819633;8.774134;187;McDonald's;Bahnhofstr.;33;35037;Marburg;;imbiss
50.819633;8.774134;187;McDonald's;Bahnhofstr.;33;35037;Marburg;;cafe
50.80903;8.773583;187;Memba;Gerhard-Jahn-Platz;11;35037;Marburg;;restaurant
50.80903;8.773583;187;Memba;Gerhard-Jahn-Platz;11;35037;Marburg;;bar_pub_bistro
50.80791;8.76845;199;Nero Centro;Krebsgasse;2;35037;Marburg;;restaurant
50.80791;8.76845;199;Nero Centro;Krebsgasse;2;35037;Marburg;;bar_pub_bistro
50.808675;8.771074;209;Plan B;Hirschberg;2;35037;Marburg;;restaurant
50.808675;8.771074;209;Plan B;Hirschberg;2;35037;Marburg;;bar_pub_bistro
50.81;8.76;279;Prima Pasta;Universitätsstr.;28;35037;Marburg;;restaurant
50.81;8.76;279;Prima Pasta;Universitätsstr.;28;35037;Marburg;;cafe
50.80515;8.77102;184;Quodlibet;Am Gruen;37;35037;Marburg;;restaurant
50.80515;8.77102;184;Quodlibet;Am Gruen;37;35037;Marburg;;bar_pub_bistro
50.81407;8.76927;193;Restaurant Damoa;Steinweg;39;35037;Marburg;;restaurant
50.81407;8.76927;193;Restaurant Damoa;Steinweg;39;35037;Marburg;;bar_pub_bistro
50.81712;8.77843;191;Rotkehlchen;Rudolf-Bultmann-Str.;2a;35039;Marburg;;restaurant
50.81712;8.77843;191;Rotkehlchen;Rudolf-Bultmann-Str.;2a;35039;Marburg;;bar_pub_bistro
50.81422;8.76904;193;Sudhaus;Steinweg;44;35037;Marburg;;restaurant
50.81422;8.76904;193;Sudhaus;Steinweg;44;35037;Marburg;;bar_pub_bistro
50.80494;8.76912;185;Vinopolio;Gutenbergstr.;23;35037;Marburg;;bar_pub_bistro
50.80494;8.76912;185;Vinopolio;Gutenbergstr.;23;35037;Marburg;;food
50.809296;8.770626;220;Zur Sonne;Markt;14;35037;Marburg;;restaurant
50.809296;8.770626;220;Zur Sonne;Markt;14;35037;Marburg;;accomodation
